#dP2024  7  9  0  0  0.00000000      96 __u+U IGS20 FIT  IAC
## 2322 172800.00000000   900.00000000 60500 0.0000000000000
+  131   C01C02C03C04C05C06C07C08C09C10C11C12C13C14C16C19C20
+        C21C22C23C24C25C26C27C28C29C30C32C33C34C35C36C37C38
+        C39C40C41C42C43C44C45C59C60C62E02E03E04E05E07E08E09
+        E10E11E12E13E14E15E18E19E21E24E25E26E27E30E31E33E34
+        E36G01G02G03G04G05G06G07G08G09G10G11G12G13G14G15G16
+        G17G18G19G20G21G22G23G24G25G26G27G28G29G30G31G32J02
+        J03J04J07R01R02R03R04R05R06R07R08R09R10R11R12R13R14
+        R15R16R17R18R19R20R21R22R23R24R25R26  0  0  0  0  0
++        17 17 17 17 17  9  9  9  9  9  9  9  9  9  9  7  7
++         7  7  7  7  7  7  7  7  7  7  7  7  7  7  7  7  8
++         8  8  7  7  8  7  7 18 17 17  4  4  4  4  5  4  4
++         4  4  4  4  4  4  5  4  4  4  4  4  4  5  4  4  5
++         4  5  4  4  4  4  4  4  4  4  4  4  4  4  4  4  4
++         4  4  4  4  4  4  4  4  4  4  4  4  4  4  4  4 10
++        10 11 17  7  6  6  6  6 15  6  6  6 15  6  6  8  6
++         6  6  6  6  7  8  6  6 15  6  8  9  0  0  0  0  0
%c M  cc GPS ccc cccc cccc cccc cccc ccccc ccccc ccccc ccccc
%c cc cc ccc ccc cccc cccc cccc cccc ccccc ccccc ccccc ccccc
%f  0.0000000  0.000000000  0.00000000000  0.000000000000000
%f  0.0000000  0.000000000  0.00000000000  0.000000000000000
%i    0    0    0    0      0      0      0      0         0
%i    0    0    0    0      0      0      0      0         0
/* INFORMATION & ANALYSIS CENTER (IAC)            RAPID DATA
/* S/V CLOCKS ARE ALIGNED TO GNSS TIME                      
/* G:C1WC2W R:C1PC2P E:C1XC5X C:C2IC6I J:C1CC2S             
/* PCV:IGS20_2317 OL/AL:FES2004  NONE     YN ORB:CoN CLK:CoN
*  2024 07 09 22  0  0.00000000
PC01 -34360.879880  24438.878785   -581.959931    907.025074
PC02   4486.404985  41862.214701  -1918.718822    839.768266
PC03 -14682.090032  39487.202699  -1274.152567    537.204135
PC04 -39634.894886  14436.591218   -260.262956   -646.343822
PC05  21810.592266  36031.563625  -1447.030960 999999.999999
PC06  -7914.454266  40026.754369  -9927.231719    577.008805
PC07  -5539.847110  27537.482605  31576.380815   -564.478895
PC08 -18917.120168  27851.644927 -25549.687956   -297.542263
PC09  -2009.712422  41769.414654    972.514809     -8.641023
PC10   2181.526595  29508.327170  30532.964555    -68.685465
PC11  16821.151492   3720.581279 -21893.671446    654.419455
PC12  14771.117502  21736.953649  -9365.392495   -262.623780
PC13 -12941.577770  28527.181327 -28213.901616    438.710767
PC14  27661.813275   1464.457937   3670.378367    911.704932
PC16  -7760.974731  39901.553295 -10230.102627   -645.740887
PC19 -24523.983055   4828.806674 -12358.910477   -917.546889
PC20 -26805.557900  -6593.954573   3948.987214   -667.512646
PC21  12983.038869  15172.974916 -19499.711472   -959.229963
PC22  -7991.598338  14228.421886 -22642.028429     55.437528
PC23  13818.245850 -23682.092350  -5173.473662   -796.661875
PC24  16455.811830   4828.621207  22005.090277    884.811532
PC25  21077.616547 -13835.412567  11933.210630    447.259756
PC26   2322.714287  20076.615807  19242.072219   -317.506854
PC27 -10619.611726 -25799.387349    655.492608    338.518319
PC28   1155.344815 -24072.497871 -14061.951533    260.696739
PC29 -14589.555148   6760.749848  22799.706732    306.046028
PC30 -18266.903340 -14120.494005  15673.228187   -127.160407
PC32 -12924.045496 -15108.806261  19580.431002   -668.828372
PC33  24587.464564  -4938.702143  12264.381598   -960.839873
PC34  18452.589773  12469.292572 -16822.929625    473.619274
PC35   -623.524690  23905.638478  14341.500980    317.217282
PC36 -21371.780354  13556.194936 -11741.135783    132.051217
PC37  -1874.572036 -20115.621743 -19224.573256   -926.146339
PC38 -24895.367334  29394.668130 -17272.194367    166.246458
PC39 -10333.391733  36646.877973 -17762.197958     -9.088125
PC40  -9521.526657  21663.982800  34922.413519    -79.373240
PC41   9006.405089 -14027.462622  22431.752098   -947.121450
PC42  26292.273709   7548.818020  -5587.620569   -451.659412
PC43  15150.375417  -5773.803371 -22726.219025     78.262981
PC44  11561.575734  25378.881523   -544.441793    528.202042
PC45 -14165.274750  23558.759595   4877.704672   -102.849339
PC59 -32211.875300  27159.759031  -1561.499921      0.280221
PC60   7254.114095  41520.068948  -1375.974365     -0.603358
PC62 -39576.179327  14481.863021   1172.186108     -0.820736
PE02  22765.709778 -15166.220579 -11295.803673    142.031776
PE03  12136.445225 -11824.896050  24268.466149   -125.862206
PE04   7130.293780  22900.430717 -17344.773784   -441.150681
PE05  23718.516616   5904.176783  16707.155268   4764.494367
PE07 -21340.205803 -20474.541606   1021.022189   -130.242352
PE08  -6301.227072 -22593.148519  18045.736255   -300.215690
PE09  21319.035179  20521.737457  -1102.060667   -509.687514
PE10   3782.709531  25611.661140 -14368.719710   -639.197446
PE11  10230.585104  17686.798933 -21429.791630   2414.240391
PE12  -2532.590365  28877.988913  -5961.203952  -1116.971873
PE13  -9852.573738 -18207.310446  21154.483101    -22.868438
PE14  27720.030753  10167.793405 -13491.980208    108.192359
PE15   2927.980828 -28961.131394   5379.400308   -113.808801
PE18 -19273.920276  -2673.369421  13463.064867    309.423823
PE19 -13720.849000  10038.971468 -24221.887920    260.928072
PE21 -28545.187920   4000.937974  -6720.410728   -604.527917
PE24  17570.029886  10231.236029  21497.178306   -864.837122
PE25  28493.547112  -3686.636149   7132.148198      6.701333
PE26 -16865.437182   3593.966848  24057.259855    507.640813
PE27 -17802.654736  -9994.064323 -21427.470563   -396.212677
PE30   3403.339394 -17974.175275 -23274.051451   -490.085777
PE31  -3297.573878  17930.117256  23329.724816    -28.868798
PE33 -13977.914371  22206.418527  13704.711555     13.602264
PE34  13761.536253 -22569.686008 -13317.858671   -121.709361
PE36  16651.832206  -2977.595167 -24294.956665   -252.705263
PG01 -13509.919454 -10782.073197 -20624.143215    244.936140
PG02 -13887.793154  13755.492050  18314.188075   -402.143525
PG03 -22043.025853  12972.611333  -7088.808383    451.040466
PG04 -13645.892643   7694.814462 -21450.091586    400.458132
PG05  24839.608030  -3905.315751  -8865.132228   -179.192653
PG06   6132.956192  20883.017782 -15086.114077    171.096646
PG07  -5515.623588  25645.083300  -1442.357426    -73.357749
PG08 -21082.947434  -1811.324089  16195.918595    267.339144
PG09  -1999.795690  16805.129917 -20542.062190    266.836510
PG10  -6821.411098 -13219.215611  22225.779331    -62.128738
PG11  13382.408784   8098.194394 -21449.898841   -701.847893
PG12  23922.616948 -10501.487316  -4912.960929   -520.952306
PG13  20981.878855  11496.387407  11572.794208    663.486205
PG14   2472.373917  15514.797835  21440.506016    445.011874
PG15  21076.667675   -836.452752  15745.185494    179.296952
PG16 -24269.577141  -1742.262422 -11495.335254   -241.204986
PG17  10233.579097  21319.258805  12344.298792    680.629840
PG18   5841.180662 -25760.988535  -1259.850787   -634.759850
PG19  16868.790777  20532.644731   3179.346928    508.147795
PG20  20203.965787   2122.908385 -16964.610194    372.935077
PG21 -15121.073449   7294.714695  20754.506176    109.992422
PG22  10514.575355  12573.969818  21263.234840    -37.631679
PG23   6587.017392 -16713.511335  19513.772472    269.981550
PG24  14426.469779 -11965.597790  18236.080405   -482.383580
PG25  16140.929676 -16452.080186 -13306.761587    498.343730
PG26 -15599.958016  -9018.251278 -19771.838558    122.828672
PG27 -22697.567169 -11879.723051   7500.031592    -30.713045
PG28  -5930.000989 -22457.495226 -12891.553205   -324.471431
PG29   6372.770460 -14296.702298 -21488.473830   -590.345392
PG30   2009.357488  24991.674039   8496.153773   -360.546364
PG31 -12041.316468 -12666.469831 -20107.792238   -226.883879
PG32 -13387.854539 -20547.450255  10660.967590   -612.965620
PJ02 -31561.342859  24465.015776  18601.479170     -0.509247
PJ03 -27584.739521  27266.630350  21777.490179     -1.086614
PJ04 -27690.501749  20755.477790 -18937.620551     50.539181
PJ07 -25392.032851  33661.379480      1.459690     -0.029098
PR01  24437.776636   7340.422688    204.533156     90.890157
PR02  19701.521461  -1106.998032  16169.427858    -23.644365
PR03   4023.555134 -10070.811326  23132.117392    103.514936
PR04 -13285.321709 -13124.617985  17409.382112    244.638834
PR05 -23600.604977  -9423.399705   2346.047072    134.312328
PR06 -18892.993782   2692.722478 -16946.125226   -171.183876
PR07  -3373.109956  10255.742627 -23071.045795     86.316143
PR08  13607.714644  13045.299203 -17109.370621     -5.756833
PR09 -20017.047522  13983.885918  -7203.271380    196.789355
PR10 -15262.945744  18966.845101   7739.308101   -187.805160
PR11   -978.578100  14381.211082  21054.103845     18.707753
PR12  14922.616333      8.033982  20715.250212     42.259822
PR13  20211.768756 -12125.151643   9746.676138    -49.148557
PR14  13815.276406 -19040.932555  -9872.902960     26.678676
PR15   -445.858192 -13542.260036 -21588.440694     78.037038
PR16 -14679.406588    -18.251311 -20833.913742     27.220306
PR17   1364.933454 -22283.917816 -12291.693555    103.179598
PR18  -6289.295619 -24432.877973   3921.328287    151.150766
PR19 -10146.188316 -15995.222873  17073.319239   -283.297871
PR20  -9383.484590   6284.513412  22871.004449   -115.856670
PR21  -1694.753502  22106.564773  12638.437105   -116.176074
PR22   6229.334955  24213.896618  -5015.396028     91.005420
PR23  10984.010184  12900.593902 -19081.246539   -126.347147
PR24   9385.888910  -7377.953995 -22527.273006    -63.123506
PR25  -2226.799712  22448.959912  11933.242276    -95.598170
PR26  12459.703896  13009.315172 -18052.494948      3.478733
EOF
